STARLINK-2022           
1 47643U 21012Z   24260.41842223  .00018020  00000+0  12249-2 0  9990
2 47643  53.0543 312.5032 0001396  87.3351 272.7798 15.06420144198982
